#cV2018 12 24 21 56  0.00000000   13109 ORBIT ITRF  FIT CNES
## 2033 165360.00000000    60.00000000 58476 0.9138888888889
+    1   L74  0  0  0  0  0  0  0  0  0  0  0  0  0  0  0  0
+          0  0  0  0  0  0  0  0  0  0  0  0  0  0  0  0  0
+          0  0  0  0  0  0  0  0  0  0  0  0  0  0  0  0  0
+          0  0  0  0  0  0  0  0  0  0  0  0  0  0  0  0  0
+          0  0  0  0  0  0  0  0  0  0  0  0  0  0  0  0  0
++
++
++         0  0  0  0  0  0  0  0  0  0  0  0  0  0  0  0  0
++         0  0  0  0  0  0  0  0  0  0  0  0  0  0  0  0  0
++         0  0  0  0  0  0  0  0  0  0  0  0  0  0  0  0  0
%c L  cc TAI ccc cccc cccc cccc cccc ccccc ccccc ccccc ccccc
%c cc cc ccc ccc cccc cccc cccc cccc ccccc ccccc ccccc ccccc
%f  1.2500000  1.025000000  0.00000000000  0.000000000000000
%f  0.0000000  0.000000000  0.00000000000  0.000000000000000
%i    0    0    0    0      0      0      0      0         0
%i    0    0    0    0      0      0      0      0         0
/* CCCCCCCCCCCCCCCCCCCCCCCCCCCCCCCCCCCCCCCCCCCCCCCCCCCCCCCCC
/* CCCCCCCCCCCCCCCCCCCCCCCCCCCCCCCCCCCCCCCCCCCCCCCCCCCCCCCCC
/* CCCCCCCCCCCCCCCCCCCCCCCCCCCCCCCCCCCCCCCCCCCCCCCCCCCCCCCCC
/* CCCCCCCCCCCCCCCCCCCCCCCCCCCCCCCCCCCCCCCCCCCCCCCCCCCCCCCCC
*  2018 12 26 21 32  0.00000000
PL74   6321.665392   1279.678964  -3169.975583 999999.999999
VL74  35094.503215 -10394.704328  65903.009876 999999.999999
*  2018 12 26 21 33  0.00000000
PL74   6519.657920   1214.005413  -2768.670904 999999.999999
VL74  30879.962003 -11483.369666  67822.134066 999999.999999
*  2018 12 26 21 34  0.00000000
PL74   6691.965471   1142.041160  -2356.634358 999999.999999
VL74  26535.707976 -12490.734402  69479.100499 999999.999999
*  2018 12 26 21 35  0.00000000
PL74   6837.861884   1064.289216  -1935.459434 999999.999999
VL74  22079.205501 -13411.807696  70867.233883 999999.999999
*  2018 12 26 21 36  0.00000000
PL74   6956.727370    981.281095  -1506.776537 999999.999999
VL74  17528.434587 -14242.084447  71980.910553 999999.999999
*  2018 12 26 21 37  0.00000000
PL74   7048.051377    893.573824  -1072.246583 999999.999999
VL74  12901.814904 -14977.568351  72815.586354 999999.999999
*  2018 12 26 21 38  0.00000000
PL74   7111.434989    801.746834   -633.554455 999999.999999
VL74   8218.124107 -15614.790981  73367.821924 999999.999999
*  2018 12 26 21 39  0.00000000
PL74   7146.592814    706.398743   -192.402320 999999.999999
VL74   3496.413518 -16150.826905  73635.295413 999999.999999
*  2018 12 26 21 40  0.00000000
PL74   7153.354404    608.144058    249.497102 999999.999999
VL74  -1244.066459 -16583.308766  73616.813103 999999.999999
*  2018 12 26 21 41  0.00000000
PL74   7131.665207    507.609769    690.427347 999999.999999
VL74  -5983.950179 -16910.444655  73312.324057 999999.999999
*  2018 12 26 21 42  0.00000000
PL74   7081.586980    405.431868   1128.675087 999999.999999
VL74 -10703.846814 -17131.027431  72722.921671 999999.999999
*  2018 12 26 21 43  0.00000000
PL74   7003.297691    302.251826   1562.536981 999999.999999
VL74 -15384.425600 -17244.437090  71850.844034 999999.999999
*  2018 12 26 21 44  0.00000000
PL74   6897.090877    198.713070   1990.326542 999999.999999
VL74 -20006.510758 -17250.642597  70699.466790 999999.999999
*  2018 12 26 21 45  0.00000000
PL74   6763.374439     95.457450   2410.380886 999999.999999
VL74 -24551.167843 -17150.200013  69273.278097 999999.999999
*  2018 12 26 21 46  0.00000000
PL74   6602.668983     -6.878276   2821.067349 999999.999999
VL74 -28999.778034 -16944.250180  67577.860241 999999.999999
*  2018 12 26 21 47  0.00000000
PL74   6415.605658   -107.665940   3220.789997 999999.999999
VL74 -33334.127246 -16634.513525  65619.870833 999999.999999
*  2018 12 26 21 48  0.00000000
PL74   6202.923459   -206.289392   3607.995973 999999.999999
VL74 -37536.493319 -16223.272086  63407.001687 999999.999999
*  2018 12 26 21 49  0.00000000
PL74   5965.466088   -302.147807   3981.181566 999999.999999
VL74 -41589.705098 -15713.349642  60947.939514 999999.999999
*  2018 12 26 21 50  0.00000000
PL74   5704.178455   -394.658905   4338.898117 999999.999999
VL74 -45477.212036 -15108.103163  58252.343239 999999.999999
*  2018 12 26 21 51  0.00000000
PL74   5420.102698   -483.262114   4679.757730 999999.999999
VL74 -49183.167596 -14411.407363  55330.798344 999999.999999
*  2018 12 26 21 52  0.00000000
PL74   5114.373759   -567.421594   5002.438665 999999.999999
VL74 -52692.493463 -13627.627270  52194.765170 999999.999999
*  2018 12 26 21 53  0.00000000
PL74   4788.214585   -646.629099   5305.690454 999999.999999
VL74 -55990.944569 -12761.590543  48856.528836 999999.999999
*  2018 12 26 21 54  0.00000000
PL74   4442.930955   -720.406661   5588.338654 999999.999999
VL74 -59065.161047 -11818.557932  45329.137931 999999.999999
*  2018 12 26 21 55  0.00000000
PL74   4079.906052   -788.309108   5849.289286 999999.999999
VL74 -61902.710469 -10804.194944  41626.357695 999999.999999
*  2018 12 26 21 56  0.00000000
PL74   3700.594733   -849.926401   6087.532987 999999.999999
VL74 -64492.142502  -9724.543410  37762.617492 999999.999999
*  2018 12 26 21 57  0.00000000
PL74   3306.517496   -904.885800   6302.148795 999999.999999
VL74 -66823.032936  -8585.987995  33752.944513 999999.999999
*  2018 12 26 21 58  0.00000000
PL74   2899.254229   -952.853815   6492.307555 999999.999999
VL74 -68886.014159  -7395.221315  29612.904905 999999.999999
*  2018 12 26 21 59  0.00000000
PL74   2480.437774   -993.537951   6657.274998 999999.999999
VL74 -70672.808932  -6159.210043  25358.551579 999999.999999
*  2018 12 26 22  0  0.00000000
PL74   2051.747272  -1026.688244   6796.414479 999999.999999
VL74 -72176.267189  -4885.159684  21006.362482 999999.999999
*  2018 12 26 22  1  0.00000000
PL74   1614.901310  -1052.098590   6909.189325 999999.999999
VL74 -73390.393710  -3580.476120  16573.171926 999999.999999
*  2018 12 26 22  2  0.00000000
PL74   1171.650935  -1069.607815   6995.164771 999999.999999
VL74 -74310.365897  -2252.725376  12076.103573 999999.999999
*  2018 12 26 22  3  0.00000000
PL74    723.772586  -1079.100530   7054.009502 999999.999999
VL74 -74932.544721   -909.595384   7532.507661 999999.999999
*  2018 12 26 22  4  0.00000000
PL74    273.060952  -1080.507742   7085.496832 999999.999999
VL74 -75254.487140    441.142205   2959.899488 999999.999999
*  2018 12 26 22  5  0.00000000
PL74   -178.678226  -1073.807240   7089.505499 999999.999999
VL74 -75274.952666   1791.671316  -1624.105758 999999.999999
*  2018 12 26 22  6  0.00000000
PL74   -629.635372  -1059.023749   7066.020079 999999.999999
VL74 -74993.904653   3134.169892  -6201.853696 999999.999999
*  2018 12 26 22  7  0.00000000
PL74  -1078.004312  -1036.228842   7015.131037 999999.999999
VL74 -74412.512002   4460.850910 -10755.713248 999999.999999
*  2018 12 26 22  8  0.00000000
PL74  -1521.989484  -1005.540602   6937.034393 999999.999999
VL74 -73533.142729   5764.003830 -15268.141261 999999.999999
*  2018 12 26 22  9  0.00000000
PL74  -1959.813108   -967.123054   6832.031008 999999.999999
VL74 -72359.354500   7036.032573 -19721.743114 999999.999999
*  2018 12 26 22 10  0.00000000
PL74  -2389.722293   -921.185359   6700.525520 999999.999999
VL74 -70895.883152   8269.493676 -24099.331893 999999.999999
*  2018 12 26 22 11  0.00000000
PL74  -2809.996069   -867.980784   6543.024913 999999.999999
VL74 -69148.631595   9457.135697 -28383.988015 999999.999999
*  2018 12 26 22 12  0.00000000
PL74  -3218.952346   -807.805432   6360.136727 999999.999999
VL74 -67124.654416  10591.935890 -32559.125739 999999.999999
*  2018 12 26 22 13  0.00000000
PL74  -3614.954757   -740.996776   6152.566844 999999.999999
VL74 -64832.131574  11667.134724 -36608.559320 999999.999999
*  2018 12 26 22 14  0.00000000
PL74  -3996.419316   -667.931961   5921.116910 999999.999999
VL74 -62280.339793  12676.272325 -40516.563121 999999.999999
*  2018 12 26 22 15  0.00000000
PL74  -4361.820914   -589.025903   5666.681389 999999.999999
VL74 -59479.621862  13613.225067 -44267.935252 999999.999999
*  2018 12 26 22 16  0.00000000
PL74  -4709.699595   -504.729166   5390.244219 999999.999999
VL74 -56441.345066  14472.238417 -47848.062760 999999.999999
*  2018 12 26 22 17  0.00000000
PL74  -5038.666567   -415.525658   5092.875110 999999.999999
VL74 -53177.855783  15247.957769 -51242.976695 999999.999999
*  2018 12 26 22 18  0.00000000
PL74  -5347.409946   -321.930140   4775.725512 999999.999999
VL74 -49702.436701  15935.458893 -54439.409323 999999.999999
*  2018 12 26 22 19  0.00000000
PL74  -5634.700220   -224.485550   4440.024227 999999.999999
VL74 -46029.251235  16530.276958 -57424.854188 999999.999999
*  2018 12 26 22 20  0.00000000
PL74  -5899.395343   -123.760177   4087.072691 999999.999999
VL74 -42173.282221  17028.431982 -60187.613069 999999.999999
*  2018 12 26 22 21  0.00000000
PL74  -6140.445488    -20.344673   3718.239992 999999.999999
VL74 -38150.277624  17426.451798 -62716.841267 999999.999999
*  2018 12 26 22 22  0.00000000
PL74  -6356.897467     85.151054   3334.957603 999999.999999
VL74 -33976.690688  17721.394950 -65002.597727 999999.999999
*  2018 12 26 22 23  0.00000000
PL74  -6547.898754    192.101094   2938.713807 999999.999999
VL74 -29669.611306  17910.871049 -67035.893569 999999.999999
*  2018 12 26 22 24  0.00000000
PL74  -6712.701088    299.866884   2531.047860 999999.999999
VL74 -25246.690547  17993.055215 -68808.733810 999999.999999
*  2018 12 26 22 25  0.00000000
PL74  -6850.663605    407.800636   2113.543917 999999.999999
VL74 -20726.065401  17966.698371 -70314.151888 999999.999999
*  2018 12 26 22 26  0.00000000
PL74  -6961.255534    515.248816   1687.824763 999999.999999
VL74 -16126.282148  17831.136848 -71546.243340 999999.999999
*  2018 12 26 22 27  0.00000000
PL74  -7044.058402    621.555686   1255.545351 999999.999999
VL74 -11466.212584  17586.299419 -72500.194535 999999.999999
EOF
